{"type": "FeatureCollection", "features": [ {"type": "Feature", "properties": {"norad_id": 38818, "name": "FENGYUN 1C DEB", "group": "fengyun-1c-debris", "lat": 54.08382185709876, "lon": 24.824547837323856, "alt_km": 727.4827765831742, "timestamp": "2025-12-05T22:40:48.840467+00:00", "meta": {"OBJECT_NAME": "FENGYUN 1C DEB", "OBJECT_ID": "1999-025EVJ", "EPOCH": "2025-11-27T09:30:24.153696", "MEAN_MOTION": 14.39418793, "ECCENTRICITY": 0.00885007, "INCLINATION": 98.3025, "RA_OF_ASC_NODE": 28.1739, "ARG_OF_PERICENTER": 145.1281, "MEAN_ANOMALY": 276.4662, "EPHEMERIS_TYPE": 0, "CLASSIFICATION_TYPE": "U", "NORAD_CAT_ID": 38818, "ELEMENT_SET_NO": 999, "REV_AT_EPOCH": 67027, "BSTAR": 0.00050962146, "MEAN_MOTION_DOT": 1.618e-05, "MEAN_MOTION_DDOT": 0}, "tle": {"line1": "1 38818U 99025EVJ 25331.39611289  .00001618  00000+0  50962-3 0  9996", "line2": "2 38818  98.3025  28.1739 0088500 145.1281 276.4662 14.39418793670274"}}, "geometry": {"type": "Point", "coordinates": [24.824547837323856, 54.08382185709876]}}, {"type": "Feature", "properties": {"norad_id": 38819, "name": "FENGYUN 1C DEB", "group": "fengyun-1c-debris", "lat": 32.06286191032582, "lon": 158.3932346087536, "alt_km": 802.7106997556939, "timestamp": "2025-12-05T22:40:48.840477+00:00", "meta": {"OBJECT_NAME": "FENGYUN 1C DEB", "OBJECT_ID": "1999-025EVK", "EPOCH": "2025-12-04T05:27:10.386720", "MEAN_MOTION": 14.1934854, "ECCENTRICITY": 0.00794, "INCLINATION": 98.6177, "RA_OF_ASC_NODE": 331.2713, "ARG_OF_PERICENTER": 219.1984, "MEAN_ANOMALY": 156.6106, "EPHEMERIS_TYPE": 0, "CLASSIFICATION_TYPE": "U", "NORAD_CAT_ID": 38819, "ELEMENT_SET_NO": 999, "REV_AT_EPOCH": 63357, "BSTAR": 0.00075514, "MEAN_MOTION_DOT": 1.594e-05, "MEAN_MOTION_DDOT": 0}, "tle": {"line1": "1 38819U 99025EVK 25338.22720355  .00001594  00000+0  75514-3 0  9994", "line2": "2 38819  98.6177 331.2713 0079400 219.1984 156.6106 14.19348540633571"}}, "geometry": {"type": "Point", "coordinates": [158.3932346087536, 32.06286191032582]}}, {"type": "Feature", "properties": {"norad_id": 38824, "name": "FENGYUN 1C DEB", "group": "fengyun-1c-debris", "lat": -53.145591947999314, "lon": 125.8646907519984, "alt_km": 846.5044725628604, "timestamp": "2025-12-05T22:40:48.840487+00:00", "meta": {"OBJECT_NAME": "FENGYUN 1C DEB", "OBJECT_ID": "1999-025EVQ", "EPOCH": "2025-11-20T14:24:21.461760", "MEAN_MOTION": 14.13875773, "ECCENTRICITY": 0.00960414, "INCLINATION": 99.2955, "RA_OF_ASC_NODE": 97.2934, "ARG_OF_PERICENTER": 263.2679, "MEAN_ANOMALY": 95.7556, "EPHEMERIS_TYPE": 0, "CLASSIFICATION_TYPE": "U", "NORAD_CAT_ID": 38824, "ELEMENT_SET_NO": 999, "REV_AT_EPOCH": 68824, "BSTAR": 0.0027703315, "MEAN_MOTION_DOT": 5.443e-05, "MEAN_MOTION_DDOT": 0}, "tle": {"line1": "1 38824U 99025EVQ 25324.60024840  .00005443  00000+0  27703-2 0  9996", "line2": "2 38824  99.2955  97.2934 0096041 263.2679  95.7556 14.13875773688246"}}, "geometry": {"type": "Point", "coordinates": [125.8646907519984, -53.145591947999314]}}, {"type": "Feature", "properties": {"norad_id": 38827, "name": "FENGYUN 1C DEB", "group": "fengyun-1c-debris", "lat": 59.52564410385472, "lon": -162.39464245465567, "alt_km": 904.8051381648029, "timestamp": "2025-12-05T22:40:48.840497+00:00", "meta": {"OBJECT_NAME": "FENGYUN 1C DEB", "OBJECT_ID": "1999-025EVT", "EPOCH": "2025-12-02T06:58:24.042720", "MEAN_MOTION": 14.3273979, "ECCENTRICITY": 0.02171, "INCLINATION": 98.388, "RA_OF_ASC_NODE": 359.5433, "ARG_OF_PERICENTER": 344.0092, "MEAN_ANOMALY": 15.4311, "EPHEMERIS_TYPE": 0, "CLASSIFICATION_TYPE": "U", "NORAD_CAT_ID": 38827, "ELEMENT_SET_NO": 999, "REV_AT_EPOCH": 60910, "BSTAR": 0.0011390004, "MEAN_MOTION_DOT": 3.982e-05, "MEAN_MOTION_DDOT": 0}, "tle": {"line1": "1 38827U 99025EVT 25336.29055605  .00003982  00000+0  11390-2 0  9991", "line2": "2 38827  98.3880 359.5433 0217100 344.0092  15.4311 14.32739790609107"}}, "geometry": {"type": "Point", "coordinates": [-162.39464245465567, 59.52564410385472]}}, {"type": "Feature", "properties": {"norad_id": 38829, "name": "FENGYUN 1C DEB", "group": "fengyun-1c-debris", "lat": -80.296602903293, "lon": 60.36583918745736, "alt_km": 890.796813687859, "timestamp": "2025-12-05T22:40:48.840507+00:00", "meta": {"OBJECT_NAME": "FENGYUN 1C DEB", "OBJECT_ID": "1999-025EVV", "EPOCH": "2025-11-28T12:09:37.579680", "MEAN_MOTION": 14.09173473, "ECCENTRICITY": 0.00415826, "INCLINATION": 98.7503, "RA_OF_ASC_NODE": 348.8898, "ARG_OF_PERICENTER": 70.4663, "MEAN_ANOMALY": 290.0991, "EPHEMERIS_TYPE": 0, "CLASSIFICATION_TYPE": "U", "NORAD_CAT_ID": 38829, "ELEMENT_SET_NO": 999, "REV_AT_EPOCH": 63932, "BSTAR": 0.00056587384, "MEAN_MOTION_DOT": 9.49e-06, "MEAN_MOTION_DDOT": 0}, "tle": {"line1": "1 38829U 99025EVV 25332.50668495  .00000949  00000+0  56587-3 0  9998", "line2": "2 38829  98.7503 348.8898 0041582  70.4663 290.0991 14.09173473639320"}}, "geometry": {"type": "Point", "coordinates": [60.36583918745736, -80.296602903293]}}, {"type": "Feature", "properties": {"norad_id": 38832, "name": "FENGYUN 1C DEB", "group": "fengyun-1c-debris", "lat": 69.8167626939045, "lon": -129.45421121867997, "alt_km": 828.7630993426992, "timestamp": "2025-12-05T22:40:48.840518+00:00", "meta": {"OBJECT_NAME": "FENGYUN 1C DEB", "OBJECT_ID": "1999-025EVY", "EPOCH": "2025-12-02T22:21:52.125984", "MEAN_MOTION": 14.04442466, "ECCENTRICITY": 0.00846241, "INCLINATION": 99.2674, "RA_OF_ASC_NODE": 21.1018, "ARG_OF_PERICENTER": 70.1542, "MEAN_ANOMALY": 290.8721, "EPHEMERIS_TYPE": 0, "CLASSIFICATION_TYPE": "U", "NORAD_CAT_ID": 38832, "ELEMENT_SET_NO": 999, "REV_AT_EPOCH": 63620, "BSTAR": 0.0013226445, "MEAN_MOTION_DOT": 2.131e-05, "MEAN_MOTION_DDOT": 0}, "tle": {"line1": "1 38832U 99025EVY 25336.93185331  .00002131  00000+0  13226-2 0  9993", "line2": "2 38832  99.2674  21.1018 0084624  70.1542 290.8721 14.04442466636200"}}, "geometry": {"type": "Point", "coordinates": [-129.45421121867997, 69.8167626939045]}}, {"type": "Feature", "properties": {"norad_id": 39536, "name": "FENGYUN 1C DEB", "group": "fengyun-1c-debris", "lat": -51.54954150259589, "lon": 32.3397856861806, "alt_km": 857.0501021943946, "timestamp": "2025-12-05T22:40:48.840528+00:00", "meta": {"OBJECT_NAME": "FENGYUN 1C DEB", "OBJECT_ID": "1999-025EWD", "EPOCH": "2025-11-07T21:44:34.572480", "MEAN_MOTION": 13.69653557, "ECCENTRICITY": 0.02407275, "INCLINATION": 99.7905, "RA_OF_ASC_NODE": 351.2614, "ARG_OF_PERICENTER": 346.3194, "MEAN_ANOMALY": 13.1503, "EPHEMERIS_TYPE": 0, "CLASSIFICATION_TYPE": "U", "NORAD_CAT_ID": 39536, "ELEMENT_SET_NO": 999, "REV_AT_EPOCH": 61287, "BSTAR": 0.0015441724, "MEAN_MOTION_DOT": 1.606e-05, "MEAN_MOTION_DDOT": 0}, "tle": {"line1": "1 39536U 99025EWD 25311.90595570  .00001606  00000+0  15442-2 0  9993", "line2": "2 39536  99.7905 351.2614 0240727 346.3194  13.1503 13.69653557612878"}}, "geometry": {"type": "Point", "coordinates": [32.3397856861806, -51.54954150259589]}}, {"type": "Feature", "properties": {"norad_id": 39537, "name": "FENGYUN 1C DEB", "group": "fengyun-1c-debris", "lat": 80.7705324502812, "lon": 28.737429933803607, "alt_km": 943.1222888189241, "timestamp": "2025-12-05T22:40:48.840538+00:00", "meta": {"OBJECT_NAME": "FENGYUN 1C DEB", "OBJECT_ID": "1999-025EWE", "EPOCH": "2025-11-24T15:36:49.218624", "MEAN_MOTION": 13.84100529, "ECCENTRICITY": 0.01777289, "INCLINATION": 99.1539, "RA_OF_ASC_NODE": 114.8537, "ARG_OF_PERICENTER": 29.7742, "MEAN_ANOMALY": 331.3386, "EPHEMERIS_TYPE": 0, "CLASSIFICATION_TYPE": "U", "NORAD_CAT_ID": 39537, "ELEMENT_SET_NO": 999, "REV_AT_EPOCH": 59006, "BSTAR": 0.0012783634, "MEAN_MOTION_DOT": 1.566e-05, "MEAN_MOTION_DDOT": 0}, "tle": {"line1": "1 39537U 99025EWE 25328.65056966  .00001566  00000+0  12784-2 0  9996", "line2": "2 39537  99.1539 114.8537 0177728  29.7742 331.3386 13.84100529590067"}}, "geometry": {"type": "Point", "coordinates": [28.737429933803607, 80.7705324502812]}}, {"type": "Feature", "properties": {"norad_id": 39541, "name": "FENGYUN 1C DEB", "group": "fengyun-1c-debris", "lat": 5.457585864230706, "lon": 21.34322099220471, "alt_km": 822.8503686805752, "timestamp": "2025-12-05T22:40:48.840548+00:00", "meta": {"OBJECT_NAME": "FENGYUN 1C DEB", "OBJECT_ID": "1999-025EWJ", "EPOCH": "2025-11-26T08:43:14.269440", "MEAN_MOTION": 14.20329557, "ECCENTRICITY": 0.00721468, "INCLINATION": 98.6819, "RA_OF_ASC_NODE": 12.7746, "ARG_OF_PERICENTER": 119.8468, "MEAN_ANOMALY": 240.9905, "EPHEMERIS_TYPE": 0, "CLASSIFICATION_TYPE": "U", "NORAD_CAT_ID": 39541, "ELEMENT_SET_NO": 999, "REV_AT_EPOCH": 58770, "BSTAR": 0.00069059031, "MEAN_MOTION_DOT": 1.475e-05, "MEAN_MOTION_DDOT": 0}, "tle": {"line1": "1 39541U 99025EWJ 25330.36335960  .00001475  00000+0  69059-3 0  9993", "line2": "2 39541  98.6819  12.7746 0072146 119.8468 240.9905 14.20329557587703"}}, "geometry": {"type": "Point", "coordinates": [21.34322099220471, 5.457585864230706]}}, {"type": "Feature", "properties": {"norad_id": 39543, "name": "FENGYUN 1C DEB", "group": "fengyun-1c-debris", "lat": -34.25550719831422, "lon": 16.41574934751304, "alt_km": 1246.7235635201105, "timestamp": "2025-12-05T22:40:48.840560+00:00", "meta": {"OBJECT_NAME": "FENGYUN 1C DEB", "OBJECT_ID": "1999-025EWL", "EPOCH": "2025-12-02T19:29:54.358944", "MEAN_MOTION": 13.70153649, "ECCENTRICITY": 0.03392643, "INCLINATION": 99.0434, "RA_OF_ASC_NODE": 7.2386, "ARG_OF_PERICENTER": 168.2172, "MEAN_ANOMALY": 192.7172, "EPHEMERIS_TYPE": 0, "CLASSIFICATION_TYPE": "U", "NORAD_CAT_ID": 39543, "ELEMENT_SET_NO": 999, "REV_AT_EPOCH": 49049, "BSTAR": 0.0011250727, "MEAN_MOTION_DOT": 1.448e-05, "MEAN_MOTION_DDOT": 0}, "tle": {"line1": "1 39543U 99025EWL 25336.81243471  .00001448  00000+0  11251-2 0  9996", "line2": "2 39543  99.0434   7.2386 0339264 168.2172 192.7172 13.70153649490499"}}, "geometry": {"type": "Point", "coordinates": [16.41574934751304, -34.25550719831422]}}]}